[{"OBJECT_NAME":"HAWK-11B","OBJECT_ID":"2024-247C","EPOCH":"2026-03-09T10:44:06.809856","MEAN_MOTION":15.2884707,"ECCENTRICITY":0.00046902,"INCLINATION":45.0161,"RA_OF_ASC_NODE":115.761,"ARG_OF_PERICENTER":333.0326,"MEAN_ANOMALY":27.0314,"EPHEMERIS_TYPE":0,"CLASSIFICATION_TYPE":"U","NORAD_CAT_ID":62379,"ELEMENT_SET_NO":999,"REV_AT_EPOCH":6773,"BSTAR":0.00032841927,"MEAN_MOTION_DOT":9.093e-5,"MEAN_MOTION_DDOT":0},{"OBJECT_NAME":"STARLINK-34453","OBJECT_ID":"2025-130D","EPOCH":"2026-03-09T10:40:30.890208","MEAN_MOTION":15.30196972,"ECCENTRICITY":0.00015116,"INCLINATION":53.16,"RA_OF_ASC_NODE":89.8144,"ARG_OF_PERICENTER":81.2023,"MEAN_ANOMALY":278.9149,"EPHEMERIS_TYPE":0,"CLASSIFICATION_TYPE":"U","NORAD_CAT_ID":64441,"ELEMENT_SET_NO":999,"REV_AT_EPOCH":4066,"BSTAR":0.00075892331,"MEAN_MOTION_DOT":0.00022183,"MEAN_MOTION_DDOT":0}]
